$$SOE
2461302.500000000, A.D. 2026-Sep-19 00:00:00.0000, -5.139875285933102E+08, -2.770799211568293E+07, -1.858351671853234E+07,
2461309.500000000, A.D. 2026-Sep-26 00:00:00.0000, -5.137436369462601E+08, -3.685356551707928E+07, -1.895750084291444E+07,
2461316.500000000, A.D. 2026-Oct-03 00:00:00.0000, -5.133175749422803E+08, -4.598601354316866E+07, -1.932475881799985E+07,
2461323.500000000, A.D. 2026-Oct-10 00:00:00.0000, -5.127098366957701E+08, -5.510213255944917E+07, -1.968517326806770E+07,
2461330.500000000, A.D. 2026-Oct-17 00:00:00.0000, -5.119209570708662E+08, -6.419873455459373E+07, -2.003862888727532E+07,
2461337.500000000, A.D. 2026-Oct-24 00:00:00.0000, -5.109515113741156E+08, -7.327264707431778E+07, -2.038501242535646E+07,
2461344.500000000, A.D. 2026-Oct-31 00:00:00.0000, -5.098021149877024E+08, -8.232071331465310E+07, -2.072421269617866E+07,
2461351.500000000, A.D. 2026-Nov-07 00:00:00.0000, -5.084734226037656E+08, -9.133979230143759E+07, -2.105612063405018E+07,
2461358.500000000, A.D. 2026-Nov-14 00:00:00.0000, -5.069661268583371E+08, -1.003267582694827E+08, -2.138062934346711E+07,
2461365.500000000, A.D. 2026-Nov-21 00:00:00.0000, -5.052809581759425E+08, -1.092784985606717E+08, -2.169763392018529E+07,
2461372.500000000, A.D. 2026-Nov-28 00:00:00.0000, -5.034186868230633E+08, -1.181919130505435E+08, -2.200703119778197E+07,
2461379.500000000, A.D. 2026-Dec-05 00:00:00.0000, -5.013801235517710E+08, -1.270639157605821E+08, -2.230871980517936E+07,
2461386.500000000, A.D. 2026-Dec-12 00:00:00.0000, -4.991661186681898E+08, -1.358914355453134E+08, -2.260260029564031E+07,
2461393.500000000, A.D. 2026-Dec-19 00:00:00.0000, -4.967775614117051E+08, -1.446714158484942E+08, -2.288857517324558E+07,
2461400.500000000, A.D. 2026-Dec-26 00:00:00.0000, -4.942153797867861E+08, -1.534008143979326E+08, -2.316654887458038E+07,
2461407.500000000, A.D. 2027-Jan-02 00:00:00.0000, -4.914805405721158E+08, -1.620766030313182E+08, -2.343642774651042E+07,
2461414.500000000, A.D. 2027-Jan-09 00:00:00.0000, -4.885740493910599E+08, -1.706957676340040E+08, -2.369812002911095E+07,
2461421.500000000, A.D. 2027-Jan-16 00:00:00.0000, -4.854969508093447E+08, -1.792553081808452E+08, -2.395153584625506E+07,
2461428.500000000, A.D. 2027-Jan-23 00:00:00.0000, -4.822503284153554E+08, -1.877522389225026E+08, -2.419658721132901E+07,
2461435.500000000, A.D. 2027-Jan-30 00:00:00.0000, -4.788353046967416E+08, -1.961835887645310E+08, -2.443318806922337E+07,
2461442.500000000, A.D. 2027-Feb-06 00:00:00.0000, -4.752530402896144E+08, -2.045464014994608E+08, -2.466125438577117E+07,
2461449.500000000, A.D. 2027-Feb-13 00:00:00.0000, -4.715047330608137E+08, -2.128377346723803E+08, -2.488070414269847E+07,
2461456.500000000, A.D. 2027-Feb-20 00:00:00.0000, -4.675916193866084E+08, -2.210546578719133E+08, -2.509145708597016E+07,
2461463.500000000, A.D. 2027-Feb-27 00:00:00.0000, -4.635149762321183E+08, -2.291942536622646E+08, -2.529343461847825E+07,
2461470.500000000, A.D. 2027-Mar-06 00:00:00.0000, -4.592761210144582E+08, -2.372536192355967E+08, -2.548655995712562E+07,
2461477.500000000, A.D. 2027-Mar-13 00:00:00.0000, -4.548764108503903E+08, -2.452298667362861E+08, -2.567075824031071E+07,
2461484.500000000, A.D. 2027-Mar-20 00:00:00.0000, -4.503172423179861E+08, -2.531201230926653E+08, -2.584595655070573E+07,
2461491.500000000, A.D. 2027-Mar-27 00:00:00.0000, -4.456000515305961E+08, -2.609215299062708E+08, -2.601208391702253E+07,
2461498.500000000, A.D. 2027-Apr-03 00:00:00.0000, -4.407263143206873E+08, -2.686312434471574E+08, -2.616907131751984E+07,
2461505.500000000, A.D. 2027-Apr-10 00:00:00.0000, -4.356975464724737E+08, -2.762464347326417E+08, -2.631685168909118E+07,
2461512.500000000, A.D. 2027-Apr-17 00:00:00.0000, -4.305153039809096E+08, -2.837642897040338E+08, -2.645535994512323E+07,
2461519.500000000, A.D. 2027-Apr-24 00:00:00.0000, -4.251811832570868E+08, -2.911820095638592E+08, -2.658453301441455E+07,
2461526.500000000, A.D. 2027-May-01 00:00:00.0000, -4.196968209794714E+08, -2.984968112462822E+08, -2.670430992628619E+07,
2461533.500000000, A.D. 2027-May-08 00:00:00.0000, -4.140638932825489E+08, -3.057059272729918E+08, -2.681463190882719E+07,
2461540.500000000, A.D. 2027-May-15 00:00:00.0000, -4.082841157784805E+08, -3.128066040419304E+08, -2.691544228498112E+07,
2461547.500000000, A.D. 2027-May-22 00:00:00.0000, -4.023592459745059E+08, -3.197961011419257E+08, -2.700668623485935E+07,
2461554.500000000, A.D. 2027-May-29 00:00:00.0000, -3.962910847302289E+08, -3.266716931636384E+08, -2.708831085219289E+07,
2461561.500000000, A.D. 2027-Jun-05 00:00:00.0000, -3.900814758705712E+08, -3.334306708764889E+08, -2.716026532013915E+07,
2461568.500000000, A.D. 2027-Jun-12 00:00:00.0000, -3.837323059617431E+08, -3.400703413402958E+08, -2.722250098687792E+07,
2461575.500000000, A.D. 2027-Jun-19 00:00:00.0000, -3.772455045804802E+08, -3.465880278872420E+08, -2.727497138687776E+07,
2461582.500000000, A.D. 2027-Jun-26 00:00:00.0000, -3.706230447963835E+08, -3.529810702365705E+08, -2.731763225469787E+07,
2461589.500000000, A.D. 2027-Jul-03 00:00:00.0000, -3.638669437348050E+08, -3.592468247350450E+08, -2.735044154265492E+07,
2461596.500000000, A.D. 2027-Jul-10 00:00:00.0000, -3.569792631831794E+08, -3.653826647156851E+08, -2.737335944485760E+07,
2461603.500000000, A.D. 2027-Jul-17 00:00:00.0000, -3.499621102040849E+08, -3.713859810146939E+08, -2.738634843388847E+07,
2461610.500000000, A.D. 2027-Jul-24 00:00:00.0000, -3.428176375980609E+08, -3.772541827103831E+08, -2.738937332936953E+07,
2461617.500000000, A.D. 2027-Jul-31 00:00:00.0000, -3.355480438040727E+08, -3.829846978495821E+08, -2.738240141665831E+07,
2461624.500000000, A.D. 2027-Aug-07 00:00:00.0000, -3.281555724374858E+08, -3.885749730106672E+08, -2.736540250293529E+07,
2461631.500000000, A.D. 2027-Aug-14 00:00:00.0000, -3.206425137653368E+08, -3.940224719573162E+08, -2.733834872019428E+07,
2461638.500000000, A.D. 2027-Aug-21 00:00:00.0000, -3.130112074993164E+08, -3.993246767487221E+08, -2.730121440683430E+07,
2461645.500000000, A.D. 2027-Aug-28 00:00:00.0000, -3.052640434749271E+08, -4.044790901053226E+08, -2.725397628439194E+07,
2461652.500000000, A.D. 2027-Sep-04 00:00:00.0000, -2.974034613977565E+08, -4.094832365293559E+08, -2.719661361674884E+07,
2461659.500000000, A.D. 2027-Sep-11 00:00:00.0000, -2.894319510513688E+08, -4.143346628425125E+08, -2.712910827804300E+07,
2461666.500000000, A.D. 2027-Sep-18 00:00:00.0000, -2.813520528324344E+08, -4.190309387918047E+08, -2.705144479486924E+07,
2461673.500000000, A.D. 2027-Sep-25 00:00:00.0000, -2.731663583830203E+08, -4.235696578024366E+08, -2.696361039042014E+07,
2461680.500000000, A.D. 2027-Oct-02 00:00:00.0000, -2.648775112440223E+08, -4.279484378513155E+08, -2.686559503552803E+07,
2461687.500000000, A.D. 2027-Oct-09 00:00:00.0000, -2.564882075064428E+08, -4.321649224665178E+08, -2.675739150927877E+07,
2461694.500000000, A.D. 2027-Oct-16 00:00:00.0000, -2.480011963961661E+08, -4.362167819077872E+08, -2.663899547957864E+07,
2461701.500000000, A.D. 2027-Oct-23 00:00:00.0000, -2.394192805304506E+08, -4.401017145336992E+08, -2.651040562799144E+07,
2461708.500000000, A.D. 2027-Oct-30 00:00:00.0000, -2.307453154688914E+08, -4.438174477454690E+08, -2.637162380335516E+07,
2461715.500000000, A.D. 2027-Nov-06 00:00:00.0000, -2.219822097195234E+08, -4.473617373801829E+08, -2.622265500536770E+07,
2461722.500000000, A.D. 2027-Nov-13 00:00:00.0000, -2.131329271827625E+08, -4.507323676312646E+08, -2.606350718592593E+07,
2461729.500000000, A.D. 2027-Nov-20 00:00:00.0000, -2.042004891292976E+08, -4.539271536848587E+08, -2.589419131329662E+07,
2461736.500000000, A.D. 2027-Nov-27 00:00:00.0000, -1.951879740935506E+08, -4.569439441107406E+08, -2.571472160538766E+07,
2461743.500000000, A.D. 2027-Dec-04 00:00:00.0000, -1.860985177055649E+08, -4.597806220956050E+08, -2.552511567179033E+07,
2461750.500000000, A.D. 2027-Dec-11 00:00:00.0000, -1.769353130104503E+08, -4.624351064834274E+08, -2.532539459269568E+07,
2461757.500000000, A.D. 2027-Dec-18 00:00:00.0000, -1.677016109982208E+08, -4.649053529624149E+08, -2.511558298740816E+07,
2461764.500000000, A.D. 2027-Dec-25 00:00:00.0000, -1.584007211892947E+08, -4.671893554012918E+08, -2.489570908640534E+07,
2461771.500000000, A.D. 2028-Jan-01 00:00:00.0000, -1.490360122312703E+08, -4.692851473213816E+08, -2.466580480942148E+07,
$$EOE